BEESAT-4                
1 41619U 16040W   23054.08342744  .00047124  00000+0  10612-2 0  9997
2 41619  97.1792 104.0407 0005571 294.1593  65.9073 15.43124970359187
RAVAN                   
1 41849U 16067B   23054.64531148  .00010479  00000+0  76986-3 0  9991
2 41849  98.0178 204.6202 0016911 208.9427 151.0861 15.03527050343692
CELTEE 1                
1 41850U 16067C   23054.35451161  .00006558  00000+0  52986-3 0  9994
2 41850  98.0344 198.4362 0004361 241.4115 118.6669 15.00166114343342
OPTICUBE 04             
1 41851U 16067D   23054.35104283  .00004441  00000+0  37266-3 0  9998
2 41851  98.0288 197.0829 0006882 215.8203 144.2558 14.98883875343276
AEROCUBE 8D             
1 41852U 16067E   23054.34713002  .00007695  00000+0  61881-3 0  9997
2 41852  98.0303 197.3873 0004273 239.8419 120.2380 15.00289236343287
AEROCUBE 8C             
1 41853U 16067F   23054.86653494  .00007429  00000+0  59815-3 0  9992
2 41853  98.0221 197.7030 0006724 188.4906 171.6204 15.00243799343356
PROMETHEUS 2-1          
1 41854U 16067G   23054.89100870  .00012779  00000+0  95635-3 0  9995
2 41854  98.0477 199.8440 0018308 237.7239 122.2212 15.02753051343457
PROMETHEUS 2-3          
1 41855U 16067H   23054.35012499  .00013178  00000+0  98755-3 0  9996
2 41855  98.0409 199.2619 0015812 249.0059 110.9473 15.02729227343370
INS-1B                  
1 41954U 17008G   23054.39293292  .00048895  00000+0  11181-2 0  9999
2 41954  97.2198 115.0214 0006046  61.7309 298.4549 15.42654850335256
BGUSAT                  
1 41999U 17008BD  23054.93874236  .10767393  23907-5  17973-2 0  9995
2 41999  97.2203 134.4456 0010258 275.9236  84.0891 16.33198398335736
DIDO-2                  
1 42000U 17008BE  23054.46040997  .00022736  00000+0  68582-3 0  9996
2 42000  97.2202 112.6479 0007813  86.5568 273.6569 15.34267254334464
PEASSS                  
1 42015U 17008BV  23054.42211708  .00039058  00000+0  94203-3 0  9992
2 42015  97.2265 118.3104 0004877  78.8183 281.3612 15.41106233335273
AL-FARABI 1             
1 42016U 17008BW  23054.40698458  .00077577  00000+0  14034-2 0  9993
2 42016  97.2328 123.2558 0002870  74.2168 285.9400 15.49402412335660
NAYIF-1 (EO-88)         
1 42017U 17008BX  23054.12571601  .00062914  00000+0  11232-2 0  9999
2 42017  97.2322 123.0469 0003018  73.9773 286.1811 15.49840220335658
UCLSAT                  
1 42765U 17036A   23054.83341877  .00038419  00000+0  97490-3 0  9992
2 42765  97.1626  95.3971 0009123 134.7086 225.4904 15.39532578315783
LITUANICASAT-2          
1 42768U 17036D   23054.63022501  .00225388  00000+0  21208-2 0  9999
2 42768  97.1645 102.4773 0006053 119.1329 241.0538 15.66384352316034
AALTO-1                 
1 42775U 17036L   23054.51692032  .00018204  00000+0  61368-3 0  9995
2 42775  97.1686  88.1104 0012236 146.1550 214.0475 15.30705611315104
URSA MAIOR              
1 42776U 17036M   23054.04213302  .00019797  00000+0  64326-3 0  9998
2 42776  97.1693  88.7121 0011844 145.5495 214.6518 15.31881140315087
COMPASS 2               
1 42777U 17036N   23054.06526807  .00071737  00000+0  13097-2 0  9998
2 42777  97.1670  98.7702 0008242 124.1762 236.0272 15.49132697315672
DIAMOND RED             
1 42783U 17036U   23054.53976603  .00020940  00000+0  63718-3 0  9996
2 42783  97.1685  92.0972 0010169 145.5126 214.6779 15.33985633315339
PEGASUS                 
1 42784U 17036V   23054.56677814  .00033476  00000+0  90600-3 0  9990
2 42784  97.1665  94.0296 0009698 139.3076 220.8896 15.37572110315468
DIAMOND GREEN           
1 42785U 17036W   23054.52726156  .00025041  00000+0  75269-3 0  9994
2 42785  97.1683  92.1810 0010095 147.5645 212.6221 15.34339318315409
DIAMOND BLUE            
1 42786U 17036X   23054.53101003  .00024164  00000+0  72945-3 0  9997
2 42786  97.1688  92.1679 0010077 146.8198 213.3679 15.34210006315400
NUDTSAT                 
1 42787U 17036Y   23054.30740647  .00089202  00000+0  14515-2 0  9998
2 42787  97.1656 100.8446 0007154 128.3800 231.8102 15.52329645315701
SUCHAI                  
1 42788U 17036Z   23054.58221829  .00048361  00000+0  11288-2 0  9990
2 42788  97.1653  96.6669 0008666 133.3033 226.8939 15.42021446315700
SKCUBE                  
1 42789U 17036AA  23054.58312470  .00040666  00000+0  10214-2 0  9992
2 42789  97.1657  95.6815 0008984 134.9445 225.2532 15.39834804315566
VZLUSAT-1               
1 42790U 17036AB  23054.55773065  .00091504  00000+0  15216-2 0  9996
2 42790  97.1640 100.9558 0006542 124.6105 235.5765 15.51718118315881
ROBUSTA 1B              
1 42792U 17036AD  23054.66165192  .00044792  00000+0  10690-2 0  9994
2 42792  97.1645  96.6224 0008399 133.5079 226.6868 15.41370772315648
CICERO 6                
1 42793U 17036AE  23054.54768722  .00020019  00000+0  62548-3 0  9996
2 42793  97.1672  92.4706 0008955 145.0398 215.1435 15.33164408315458
CORVUS BC2              
1 42846U 17042X   23054.49742347  .00002954  00000+0  28263-3 0  9995
2 42846  97.3956 262.3106 0008065 230.8217 129.2288 14.93899780305746
CORVUS BC1              
1 42847U 17042Y   23054.56270919  .00002901  00000+0  27700-3 0  9992
2 42847  97.3955 262.7145 0007779 229.1064 130.9484 14.93994960305760
MIRATA                  
1 43015U 17073C   23054.26339749  .00015679  00000+0  10403-2 0  9995
2 43015  97.6489 305.5537 0224756  73.8660 288.7171 14.88894362284519
MAKERSAT 0              
1 43016U 17073D   23054.20795554  .00009852  00000+0  68722-3 0  9994
2 43016  97.6488 304.2669 0236332  81.1924 281.5973 14.85637389284375
CORVUS BC3              
1 43118U 18004H   23054.66124006  .00019386  00000+0  60829-3 0  9993
2 43118  97.3343 129.5114 0008266 184.4229 175.6942 15.33044017284616
MICROMAS-2A             
1 43131U 18004W   23054.80561417  .00194779  00000+0  19675-2 0  9997
2 43131  97.3432 142.5438 0004086 208.7132 151.3903 15.64699726285383
CICERO 7                
1 43143U 18004AJ  23054.95240144  .00034782  00000+0  76393-3 0  9995
2 43143  97.3504 139.5361 0005224 170.4374 189.6975 15.43938380285220
GOMX-4B                 
1 43196U 18015E   23054.34530222  .00018665  00000+0  60560-3 0  9998
2 43196  97.5618 202.3039 0015300 250.1959 109.7633 15.31904281281497
GOMX-4A                 
1 43197U 18015F   23054.98524809  .00020318  00000+0  60859-3 0  9992
2 43197  97.5602 204.5369 0015221 244.9096 263.7049 15.34433840281703
AEROCUBE 12A            
1 43556U 18046C   23054.34437128  .00113542  00000+0  14468-2 0  9998
2 43556  51.6304  28.6356 0003354 181.7735 178.3246 15.58447934258120
AEROCUBE 12B            
1 43557U 18046D   23054.99615263  .00057067  00000+0  96324-3 0  9999
2 43557  51.6349  36.6393 0003695 192.8285 167.2611 15.51072429258029
CUBEBEL-1 (BSUSAT-1)    
1 43666U 18083E   23054.83188100  .00025543  00000+0  86441-3 0  9992
2 43666  97.3960  86.2919 0012031 157.6026  15.6265 15.30518633239813
CICERO 10               
1 43690U 18088A   23054.32957171  .00022373  00000+0  74456-3 0  9991
2 43690  85.0371 149.2518 0010535 298.7672  61.2516 15.30969234238043
PROXIMA I               
1 43694U 18088E   23054.26677439  .00026268  00000+0  81931-3 0  9997
2 43694  85.0300 145.3217 0013614 259.8078 100.1634 15.33003446238299
PROXIMA II              
1 43696U 18088G   23054.53449055  .00024961  00000+0  78001-3 0  9992
2 43696  85.0298 145.1757 0013698 258.8730 101.0978 15.32944826238320
FACSAT-1                
1 43721U 18096C   23054.90932741  .00088341  00000+0  12814-2 0  9991
2 43721  97.3236 141.5794 0010482 224.9838 247.5710 15.55477158236747
CENTAURI-2              
1 43722U 18096D   23054.81739028  .00342455  00000+0  19819-2 0  9996
2 43722  97.3242 146.3908 0009920 243.8677 116.1569 15.77594815237019
SIRION PATHFINDER-2     
1 43759U 18099B   23054.38889914  .00005069  00000+0  43667-3 0  9997
2 43759  97.5877 119.3205 0014959 134.9832 225.2605 14.97682512230587
CORVUS BC4              
1 43767U 18099K   23054.10849209  .00004470  00000+0  39190-3 0  9990
2 43767  97.5820 117.1799 0012216 142.2580 217.9502 14.97084045230451
MOVE-II                 
1 43780U 18099Y   23054.15427637  .00009932  00000+0  78292-3 0  9991
2 43780  97.5901 120.7412 0012831 164.7832 195.3781 15.00891454230611
SPACEBEE-7              
1 43816U 18099BL  23053.99484865  .00009096  00000+0  73021-3 0  9994
2 43816  97.5944 121.2305 0015189 122.1870 238.0829 15.00194320230171
SPACEBEE-5              
1 43817U 18099BM  23054.17431769  .00031061  00000+0  19711-2 0  9993
2 43817  97.6048 126.6016 0005064 127.7802 232.3885 15.08815374230450
SPACEBEE-6              
1 43818U 18099BN  23054.43771410  .00013954  00000+0  10510-2 0  9992
2 43818  97.6048 123.2659 0014720 136.4292 223.8098 15.02520950230465
SHIELDS 1               
1 43850U 18104B   23054.55714246  .00008360  00000+0  32042-3 0  9992
2 43850  85.0239 245.3133 0015380  62.1255 298.1545 15.26232821232764
STF-1                   
1 43852U 18104D   23054.49144232  .00031353  00000+0  93642-3 0  9990
2 43852  85.0242 244.4695 0012836  65.3531 294.9053 15.34377856232910
ZACUBE-2                
1 43907U 18111AH  23054.97986294  .00022843  00000+0  69392-3 0  9993
2 43907  97.1580 297.6374 0015162 263.4537 225.4740 15.33957578231753
LUME 1                  
1 43908U 18111AJ  23054.23946372  .00031429  00000+0  82959-3 0  9990
2 43908  97.1583 299.6843 0012754 252.5983 107.3868 15.38323343231827
AOBA VELOX-IV           
1 43940U 19003J   23054.84706281  .00265761  00000+0  21591-2 0  9999
2 43940  97.0903  91.1644 0005792 303.6349  56.4361 15.69889037228986
MOVE-IIB                
1 44398U 19038N   23054.46207794  .00043787  00000+0  15606-2 0  9990
2 44398  97.6571  32.9147 0015962 348.5098  11.5774 15.28660871201227
SONATE                  
1 44400U 19038Q   23054.47144784  .00013600  00000+0  66287-3 0  9997
2 44400  97.6738  30.0920 0021458 353.6722   6.4237 15.18253465200965
